ALOS (DAICHI)           
1 28931U 06002A   24221.44021747  .00004047  00000+0  74453-3 0  9991
2 28931  98.0394 173.4021 0001630  55.6511 304.4847 14.66145043988637
